ICEYE-X78               
1 68995U 26100R   26192.69206222  .00000296  00000+0  34809-4 0  9999
2 68995  97.7339  89.6904 0003738  62.0286 298.1311 14.91808636 10358
ICEYE-X82               
1 68996U 26100S   26192.71309840  .00001459  00000+0  15157-3 0  9999
2 68996  97.7336  89.6582 0005791  72.7187 287.4665 14.91413960 10352
